ONEWEB-0558             
1 56059U 23043P   24162.61378973  .00000011  00000+0 -40155-5 0  9998
2 56059  87.9298  30.6076 0002317  78.2519 281.8874 13.21826211 60930
ONEWEB-0559             
1 56060U 23043Q   24162.60273231  .00000062  00000+0  11864-3 0  9998
2 56060  87.9295  30.6078 0002402  91.9170 268.2239 13.21827806 60947
ONEWEB-0566             
1 56061U 23043R   24162.59642856  .00000106  00000+0  22501-3 0  9999
2 56061  87.9294  30.6096 0002568  78.7143 281.4280 13.21824340 60924
ONEWEB-0568             
1 56062U 23043S   24162.60040215  .00000124  00000+0  29170-3 0  9992
2 56062  87.9108  15.3994 0001500  80.9387 279.1913 13.16594051 62056
ONEWEB-0574             
1 56063U 23043T   24162.59013378  .00000154  00000+0  34208-3 0  9992
2 56063  87.9293  30.6054 0001894  78.2555 281.8791 13.21826118 60962
ONEWEB-0575             
1 56064U 23043U   24162.59407390  .00000099  00000+0  22597-3 0  9990
2 56064  87.9108  15.4096 0001500 103.2712 256.8587 13.16595204 62042
ONEWEB-0576             
1 56065U 23043V   24162.57506860  .00000091  00000+0  20519-3 0  9995
2 56065  87.9106  15.4110 0001377  86.4084 273.7204 13.16593494 62946
ONEWEB-0577             
1 56066U 23043W   24162.58140258  .00000110  00000+0  25344-3 0  9995
2 56066  87.9108  15.4089 0001497 112.6973 247.4316 13.16593956 62064
